{
  "norad_id": 69020,
  "name": "CAS500-2 RIDESHARE OBJECT AS",
  "history": [
    {
      "epoch": "2026-05-09T18:53:45.642048Z",
      "apogee_km": 511.7931287072579,
      "perigee_km": 503.443461836212,
      "latitude_deg": 5.700098313323057e-05,
      "longitude_deg": -122.74888074932143,
      "height_km": 511.97774212498257,
      "semi_major_axis_km": 6885.755295271734,
      "eccentricity": 0.0006063,
      "inclination_deg": 97.4075,
      "raan_deg": 28.2912,
      "arg_perigee_deg": 107.8622,
      "mean_anomaly_deg": 252.3275,
      "mean_motion_rev_day": 15.19411415
    }
  ]
}