CAS500-2 RIDESHARE OBJE*
1 69020U 26100AS  26129.78733382  .00005677  00000+0  27114-3 0  9999
2 69020  97.4075  28.2912 0006062 107.8622 252.3275 15.19411415   979
